[Satellite]
VERSION=1.1
NAME=IRIDIUM 151 [+]
NICKNAME=IRIDIUM 151 [+]
TLE1=1 43074U 17083E   20157.56577153  .00000082  00000-0  22169-4 0  9995
TLE2=2 43074  86.3974 162.5441 0002512  98.0960 262.0521 14.34215455128432
STATUS=0
